[{"OBJECT_NAME":"STARLINK-1912","OBJECT_ID":"2020-088BJ","EPOCH":"2026-03-09T00:10:17.079168","MEAN_MOTION":15.55634663,"ECCENTRICITY":0.00082154,"INCLINATION":53.0525,"RA_OF_ASC_NODE":284.7515,"ARG_OF_PERICENTER":157.4332,"MEAN_ANOMALY":202.7041,"EPHEMERIS_TYPE":0,"CLASSIFICATION_TYPE":"U","NORAD_CAT_ID":47178,"ELEMENT_SET_NO":999,"REV_AT_EPOCH":29201,"BSTAR":0.0016669188,"MEAN_MOTION_DOT":0.00117861,"MEAN_MOTION_DDOT":0},{"OBJECT_NAME":"ARIANE 5 DEB [SYLDA]","OBJECT_ID":"2006-020C","EPOCH":"2026-03-09T23:29:52.918080","MEAN_MOTION":10.77901026,"ECCENTRICITY":0.23318379,"INCLINATION":6.8059,"RA_OF_ASC_NODE":14.5601,"ARG_OF_PERICENTER":356.4204,"MEAN_ANOMALY":2.1727,"EPHEMERIS_TYPE":0,"CLASSIFICATION_TYPE":"U","NORAD_CAT_ID":29164,"ELEMENT_SET_NO":999,"REV_AT_EPOCH":39225,"BSTAR":0.0070086788,"MEAN_MOTION_DOT":0.00292973,"MEAN_MOTION_DDOT":-1.422663e-6}]
